[{"OBJECT_NAME":"ONEWEB-0052","OBJECT_ID":"2020-008AB","EPOCH":"2026-03-09T21:12:21.096000","MEAN_MOTION":13.09871527,"ECCENTRICITY":0.00017047,"INCLINATION":87.8776,"RA_OF_ASC_NODE":56.0211,"ARG_OF_PERICENTER":70.4367,"MEAN_ANOMALY":289.6944,"EPHEMERIS_TYPE":0,"CLASSIFICATION_TYPE":"U","NORAD_CAT_ID":45156,"ELEMENT_SET_NO":999,"REV_AT_EPOCH":29493,"BSTAR":0.0012988391,"MEAN_MOTION_DOT":4.63e-6,"MEAN_MOTION_DDOT":0},{"OBJECT_NAME":"COSMOS 1174 DEB","OBJECT_ID":"1980-030K","EPOCH":"2026-03-09T19:16:08.602176","MEAN_MOTION":13.91535255,"ECCENTRICITY":0.04307717,"INCLINATION":66.4753,"RA_OF_ASC_NODE":241.413,"ARG_OF_PERICENTER":19.7566,"MEAN_ANOMALY":341.9633,"EPHEMERIS_TYPE":0,"CLASSIFICATION_TYPE":"U","NORAD_CAT_ID":11778,"ELEMENT_SET_NO":999,"REV_AT_EPOCH":27008,"BSTAR":0.00071366471,"MEAN_MOTION_DOT":1.846e-5,"MEAN_MOTION_DDOT":0}]
